IRIDIUM 126             
1 42809U 17039G   24193.71914829  .00000030  00000+0  34968-5 0  9990
2 42809  86.3971 288.4447 0002291 101.6903 258.4550 14.34225566368835
IRIDIUM 124             
1 42810U 17039H   24193.61115589  .00000484  00000+0  13796-3 0  9994
2 42810  86.4489 225.2227 0002625  88.0634 272.0868 14.43292603373349
IRIDIUM 128             
1 42811U 17039J   24193.43081852  .00000386  00000+0  13079-3 0  9995
2 42811  86.3986 320.0955 0002597 100.5052 259.6437 14.34217586368822
IRIDIUM 121             
1 42812U 17039K   24193.66841446  .00000189  00000+0  60378-4 0  9990
2 42812  86.3968 288.4882 0002354  93.2827 266.8638 14.34219107368709
IRIDIUM 133             
1 42955U 17061A   24193.39276264  .00000310  00000+0  10366-3 0  9990
2 42955  86.3980 320.2107 0002307 102.7845 257.3608 14.34218460353617
IRIDIUM 100             
1 42956U 17061B   24193.45618973  .00000088  00000+0  24335-4 0  9999
2 42956  86.3986 320.1201 0002105  95.5924 264.5511 14.34215692353641
IRIDIUM 122             
1 42957U 17061C   24193.42447580  .00000420  00000+0  14294-3 0  9993
2 42957  86.3986 320.1320 0002178  97.0827 263.0616 14.34218145353627
IRIDIUM 129             
1 42958U 17061D   24193.65915283  .00000415  00000+0  14119-3 0  9999
2 42958  86.3987 320.0933 0002212 101.9413 258.2031 14.34219140353671
